{
  "type": "FeatureCollection",
  "features": [
    {
      "type": "Feature",
      "properties": {
        "street_name": "Carrer de la Font",
        "calculated_eq": 70.5,
        "segment_index": 0
      },
      "geometry": {
        "type": "LineString",
        "coordinates": [
          [
            2.013694,
            41.562812
          ],
          [
            2.014889,
            41.562948
          ]
        ]
      }
    },
    {
      "type": "Feature",
      "properties": {
        "street_name": "Carrer de la Font",
        "calculated_eq": 61.7,
        "segment_index": 1
      },
      "geometry": {
        "type": "LineString",
        "coordinates": [
          [
            2.013689,
            41.56288
          ],
          [
            2.014275,
            41.562919
          ],
          [
            2.014876,
            41.563006
          ]
        ]
      }
    },
    {
      "type": "Feature",
      "properties": {
        "street_name": "Carrer de la Font",
        "calculated_eq": 57.2,
        "segment_index": 2
      },
      "geometry": {
        "type": "LineString",
        "coordinates": [
          [
            2.014876,
            41.563006
          ],
          [
            2.01492,
            41.56306
          ]
        ]
      }
    },
    {
      "type": "Feature",
      "properties": {
        "street_name": "Carrer de la Font",
        "calculated_eq": 67.2,
        "segment_index": 3
      },
      "geometry": {
        "type": "LineString",
        "coordinates": [
          [
            2.014982,
            41.563001
          ],
          [
            2.01488,
            41.562981
          ],
          [
            2.014292,
            41.562893
          ]
        ]
      }
    },
    {
      "type": "Feature",
      "properties": {
        "street_name": "Carrer de la Font",
        "calculated_eq": 69.1,
        "segment_index": 4
      },
      "geometry": {
        "type": "LineString",
        "coordinates": [
          [
            2.014292,
            41.562893
          ],
          [
            2.013966,
            41.562868
          ],
          [
            2.013737,
            41.562854
          ]
        ]
      }
    },
    {
      "type": "Feature",
      "properties": {
        "street_name": "Carrer de la Font",
        "calculated_eq": 58.6,
        "segment_index": 5
      },
      "geometry": {
        "type": "LineString",
        "coordinates": [
          [
            2.013737,
            41.562854
          ],
          [
            2.01369,
            41.56285
          ],
          [
            2.01364,
            41.56285
          ]
        ]
      }
    },
    {
      "type": "Feature",
      "properties": {
        "street_name": "Carrer Major",
        "calculated_eq": 79.0,
        "segment_index": 0
      },
      "geometry": {
        "type": "LineString",
        "coordinates": [
          [
            2.010854,
            41.561899
          ],
          [
            2.010446,
            41.561682
          ],
          [
            2.010091,
            41.561513
          ]
        ]
      }
    },
    {
      "type": "Feature",
      "properties": {
        "street_name": "Carrer Major",
        "calculated_eq": 71.0,
        "segment_index": 1
      },
      "geometry": {
        "type": "LineString",
        "coordinates": [
          [
            2.010091,
            41.561513
          ],
          [
            2.010057,
            41.561497
          ]
        ]
      }
    },
    {
      "type": "Feature",
      "properties": {
        "street_name": "Carrer Major",
        "calculated_eq": 69.3,
        "segment_index": 2
      },
      "geometry": {
        "type": "LineString",
        "coordinates": [
          [
            2.010066,
            41.56145
          ],
          [
            2.010057,
            41.561497
          ]
        ]
      }
    },
    {
      "type": "Feature",
      "properties": {
        "street_name": "Carrer Major",
        "calculated_eq": 79.0,
        "segment_index": 3
      },
      "geometry": {
        "type": "LineString",
        "coordinates": [
          [
            2.010066,
            41.56145
          ],
          [
            2.009075,
            41.561003
          ],
          [
            2.009032,
            41.560952
          ]
        ]
      }
    },
    {
      "type": "Feature",
      "properties": {
        "street_name": "Carrer Major",
        "calculated_eq": 78.8,
        "segment_index": 4
      },
      "geometry": {
        "type": "LineString",
        "coordinates": [
          [
            2.010057,
            41.561497
          ],
          [
            2.009048,
            41.561036
          ],
          [
            2.008954,
            41.560993
          ]
        ]
      }
    },
    {
      "type": "Feature",
      "properties": {
        "street_name": "Carrer de la Rasa",
        "calculated_eq": 67.7,
        "segment_index": 0
      },
      "geometry": {
        "type": "LineString",
        "coordinates": [
          [
            2.016214,
            41.566519
          ],
          [
            2.016213,
            41.566495
          ],
          [
            2.016226,
            41.56646
          ]
        ]
      }
    },
    {
      "type": "Feature",
      "properties": {
        "street_name": "Carrer de la Rasa",
        "calculated_eq": 58.1,
        "segment_index": 1
      },
      "geometry": {
        "type": "LineString",
        "coordinates": [
          [
            2.012458,
            41.564768
          ],
          [
            2.012389,
            41.5648
          ]
        ]
      }
    },
    {
      "type": "Feature",
      "properties": {
        "street_name": "Carrer de la Rasa",
        "calculated_eq": 63.6,
        "segment_index": 2
      },
      "geometry": {
        "type": "LineString",
        "coordinates": [
          [
            2.012389,
            41.5648
          ],
          [
            2.012211,
            41.564768
          ],
          [
            2.01085,
            41.56442
          ]
        ]
      }
    },
    {
      "type": "Feature",
      "properties": {
        "street_name": "Carrer de la Rasa",
        "calculated_eq": 71.8,
        "segment_index": 3
      },
      "geometry": {
        "type": "LineString",
        "coordinates": [
          [
            2.01085,
            41.56442
          ],
          [
            2.010835,
            41.564416
          ],
          [
            2.010756,
            41.564396
          ]
        ]
      }
    },
    {
      "type": "Feature",
      "properties": {
        "street_name": "Carrer de la Rasa",
        "calculated_eq": 64.2,
        "segment_index": 4
      },
      "geometry": {
        "type": "LineString",
        "coordinates": [
          [
            2.010158,
            41.564279
          ],
          [
            2.010673,
            41.564405
          ],
          [
            2.01074,
            41.564422
          ]
        ]
      }
    },
    {
      "type": "Feature",
      "properties": {
        "street_name": "Carrer de la Rasa",
        "calculated_eq": 58.0,
        "segment_index": 5
      },
      "geometry": {
        "type": "LineString",
        "coordinates": [
          [
            2.01074,
            41.564422
          ],
          [
            2.010836,
            41.564446
          ],
          [
            2.012203,
            41.564787
          ]
        ]
      }
    },
    {
      "type": "Feature",
      "properties": {
        "street_name": "Carrer de la Rasa",
        "calculated_eq": 67.2,
        "segment_index": 6
      },
      "geometry": {
        "type": "LineString",
        "coordinates": [
          [
            2.012203,
            41.564787
          ],
          [
            2.012228,
            41.564794
          ],
          [
            2.012436,
            41.564843
          ]
        ]
      }
    },
    {
      "type": "Feature",
      "properties": {
        "street_name": "Carrer de la Creu",
        "calculated_eq": 54.3,
        "segment_index": 0
      },
      "geometry": {
        "type": "LineString",
        "coordinates": [
          [
            2.016226,
            41.56646
          ],
          [
            2.016982,
            41.566571
          ],
          [
            2.01704,
            41.566629
          ]
        ]
      }
    },
    {
      "type": "Feature",
      "properties": {
        "street_name": "Carrer de la Creu",
        "calculated_eq": 63.2,
        "segment_index": 1
      },
      "geometry": {
        "type": "LineString",
        "coordinates": [
          [
            2.016173,
            41.566513
          ],
          [
            2.016214,
            41.566519
          ],
          [
            2.016894,
            41.566626
          ]
        ]
      }
    },
    {
      "type": "Feature",
      "properties": {
        "street_name": "Carrer de la Creu",
        "calculated_eq": 56.5,
        "segment_index": 2
      },
      "geometry": {
        "type": "LineString",
        "coordinates": [
          [
            2.016894,
            41.566626
          ],
          [
            2.01704,
            41.566629
          ]
        ]
      }
    },
    {
      "type": "Feature",
      "properties": {
        "street_name": "Carrer de la Creu",
        "calculated_eq": 49.3,
        "segment_index": 3
      },
      "geometry": {
        "type": "LineString",
        "coordinates": [
          [
            2.01704,
            41.566629
          ],
          [
            2.016213,
            41.566495
          ],
          [
            2.016148,
            41.566484
          ]
        ]
      }
    },
    {
      "type": "Feature",
      "properties": {
        "street_name": "Carrer de la Creu",
        "calculated_eq": 57.9,
        "segment_index": 4
      },
      "geometry": {
        "type": "LineString",
        "coordinates": [
          [
            2.015129,
            41.566049
          ],
          [
            2.016103,
            41.566438
          ]
        ]
      }
    },
    {
      "type": "Feature",
      "properties": {
        "street_name": "Carrer de Sant Pere",
        "calculated_eq": 64.5,
        "segment_index": 0
      },
      "geometry": {
        "type": "LineString",
        "coordinates": [
          [
            2.012436,
            41.564843
          ],
          [
            2.012389,
            41.5648
          ],
          [
            2.012352,
            41.564766
          ]
        ]
      }
    },
    {
      "type": "Feature",
      "properties": {
        "street_name": "Carrer de Sant Pere",
        "calculated_eq": 65.9,
        "segment_index": 1
      },
      "geometry": {
        "type": "LineString",
        "coordinates": [
          [
            2.012352,
            41.564766
          ],
          [
            2.01229,
            41.56468
          ],
          [
            2.011979,
            41.564315
          ]
        ]
      }
    },
    {
      "type": "Feature",
      "properties": {
        "street_name": "Carrer de Sant Pere",
        "calculated_eq": 76.1,
        "segment_index": 2
      },
      "geometry": {
        "type": "LineString",
        "coordinates": [
          [
            2.011979,
            41.564315
          ],
          [
            2.011524,
            41.563786
          ],
          [
            2.011391,
            41.563631
          ]
        ]
      }
    },
    {
      "type": "Feature",
      "properties": {
        "street_name": "Carrer de Sant Pere",
        "calculated_eq": 72.0,
        "segment_index": 3
      },
      "geometry": {
        "type": "LineString",
        "coordinates": [
          [
            2.011391,
            41.563631
          ],
          [
            2.011255,
            41.563471
          ],
          [
            2.01101,
            41.563194
          ]
        ]
      }
    },
    {
      "type": "Feature",
      "properties": {
        "street_name": "Carrer de Sant Pere",
        "calculated_eq": 62.9,
        "segment_index": 4
      },
      "geometry": {
        "type": "LineString",
        "coordinates": [
          [
            2.01101,
            41.563194
          ],
          [
            2.010927,
            41.563025
          ]
        ]
      }
    },
    {
      "type": "Feature",
      "properties": {
        "street_name": "Carrer de la Palla",
        "calculated_eq": 68.3,
        "segment_index": 0
      },
      "geometry": {
        "type": "LineString",
        "coordinates": [
          [
            2.01195,
            41.562577
          ],
          [
            2.011778,
            41.562834
          ],
          [
            2.011623,
            41.563081
          ]
        ]
      }
    },
    {
      "type": "Feature",
      "properties": {
        "street_name": "Carrer de la Palla",
        "calculated_eq": 59.5,
        "segment_index": 1
      },
      "geometry": {
        "type": "LineString",
        "coordinates": [
          [
            2.011623,
            41.563081
          ],
          [
            2.011503,
            41.563259
          ],
          [
            2.011312,
            41.563446
          ]
        ]
      }
    },
    {
      "type": "Feature",
      "properties": {
        "street_name": "Carrer de la Palla",
        "calculated_eq": 55.0,
        "segment_index": 2
      },
      "geometry": {
        "type": "LineString",
        "coordinates": [
          [
            2.011312,
            41.563446
          ],
          [
            2.011255,
            41.563471
          ]
        ]
      }
    },
    {
      "type": "Feature",
      "properties": {
        "street_name": "Carrer del Nord",
        "calculated_eq": 58.7,
        "segment_index": 0
      },
      "geometry": {
        "type": "LineString",
        "coordinates": [
          [
            2.01341,
            41.566687
          ],
          [
            2.013416,
            41.566705
          ]
        ]
      }
    },
    {
      "type": "Feature",
      "properties": {
        "street_name": "Carrer del Nord",
        "calculated_eq": 58.7,
        "segment_index": 1
      },
      "geometry": {
        "type": "LineString",
        "coordinates": [
          [
            2.013378,
            41.566712
          ],
          [
            2.013366,
            41.566661
          ]
        ]
      }
    },
    {
      "type": "Feature",
      "properties": {
        "street_name": "Carrer del Nord",
        "calculated_eq": 48.3,
        "segment_index": 2
      },
      "geometry": {
        "type": "LineString",
        "coordinates": [
          [
            2.013732,
            41.567837
          ],
          [
            2.013681,
            41.567752
          ],
          [
            2.013622,
            41.567544
          ]
        ]
      }
    },
    {
      "type": "Feature",
      "properties": {
        "street_name": "Carrer del Nord",
        "calculated_eq": 51.0,
        "segment_index": 3
      },
      "geometry": {
        "type": "LineString",
        "coordinates": [
          [
            2.013622,
            41.567544
          ],
          [
            2.013566,
            41.567336
          ],
          [
            2.013522,
            41.567175
          ]
        ]
      }
    },
    {
      "type": "Feature",
      "properties": {
        "street_name": "Carrer del Nord",
        "calculated_eq": 60.7,
        "segment_index": 4
      },
      "geometry": {
        "type": "LineString",
        "coordinates": [
          [
            2.013522,
            41.567175
          ],
          [
            2.013378,
            41.566712
          ]
        ]
      }
    },
    {
      "type": "Feature",
      "properties": {
        "street_name": "Carrer del Nord",
        "calculated_eq": 55.5,
        "segment_index": 5
      },
      "geometry": {
        "type": "LineString",
        "coordinates": [
          [
            2.01363,
            41.567768
          ],
          [
            2.013513,
            41.567347
          ],
          [
            2.013359,
            41.566713
          ]
        ]
      }
    },
    {
      "type": "Feature",
      "properties": {
        "street_name": "Carrer de Vallparad\u00eds",
        "calculated_eq": 76.7,
        "segment_index": 0
      },
      "geometry": {
        "type": "LineString",
        "coordinates": [
          [
            2.019315,
            41.558981
          ],
          [
            2.019392,
            41.558814
          ],
          [
            2.019229,
            41.558236
          ]
        ]
      }
    },
    {
      "type": "Feature",
      "properties": {
        "street_name": "Carrer de Vallparad\u00eds",
        "calculated_eq": 73.8,
        "segment_index": 1
      },
      "geometry": {
        "type": "LineString",
        "coordinates": [
          [
            2.019229,
            41.558236
          ],
          [
            2.019143,
            41.557898
          ],
          [
            2.019088,
            41.557669
          ]
        ]
      }
    },
    {
      "type": "Feature",
      "properties": {
        "street_name": "Carrer de Vallparad\u00eds",
        "calculated_eq": 64.1,
        "segment_index": 2
      },
      "geometry": {
        "type": "LineString",
        "coordinates": [
          [
            2.019088,
            41.557669
          ],
          [
            2.019074,
            41.557616
          ]
        ]
      }
    },
    {
      "type": "Feature",
      "properties": {
        "street_name": "Carrer de Vallparad\u00eds",
        "calculated_eq": 69.5,
        "segment_index": 3
      },
      "geometry": {
        "type": "LineString",
        "coordinates": [
          [
            2.01898,
            41.557225
          ],
          [
            2.019047,
            41.557518
          ],
          [
            2.01906,
            41.557566
          ]
        ]
      }
    },
    {
      "type": "Feature",
      "properties": {
        "street_name": "Carrer de Vallparad\u00eds",
        "calculated_eq": 77.8,
        "segment_index": 4
      },
      "geometry": {
        "type": "LineString",
        "coordinates": [
          [
            2.01906,
            41.557566
          ],
          [
            2.019074,
            41.557616
          ]
        ]
      }
    },
    {
      "type": "Feature",
      "properties": {
        "street_name": "Carrer de Vallparad\u00eds",
        "calculated_eq": 70.3,
        "segment_index": 5
      },
      "geometry": {
        "type": "LineString",
        "coordinates": [
          [
            2.01898,
            41.557225
          ],
          [
            2.018623,
            41.555856
          ],
          [
            2.018282,
            41.55446
          ]
        ]
      }
    },
    {
      "type": "Feature",
      "properties": {
        "street_name": "Carrer de Vallparad\u00eds",
        "calculated_eq": 63.9,
        "segment_index": 6
      },
      "geometry": {
        "type": "LineString",
        "coordinates": [
          [
            2.01817,
            41.553677
          ],
          [
            2.018218,
            41.553698
          ],
          [
            2.018266,
            41.553727
          ]
        ]
      }
    },
    {
      "type": "Feature",
      "properties": {
        "street_name": "Carrer de Vallparad\u00eds",
        "calculated_eq": 73.1,
        "segment_index": 7
      },
      "geometry": {
        "type": "LineString",
        "coordinates": [
          [
            2.018266,
            41.553727
          ],
          [
            2.018302,
            41.553757
          ],
          [
            2.018335,
            41.553791
          ]
        ]
      }
    },
    {
      "type": "Feature",
      "properties": {
        "street_name": "Carrer de Vallparad\u00eds",
        "calculated_eq": 77.1,
        "segment_index": 8
      },
      "geometry": {
        "type": "LineString",
        "coordinates": [
          [
            2.018335,
            41.553791
          ],
          [
            2.018357,
            41.553825
          ],
          [
            2.018373,
            41.553868
          ]
        ]
      }
    },
    {
      "type": "Feature",
      "properties": {
        "street_name": "Carrer de Vallparad\u00eds",
        "calculated_eq": 66.9,
        "segment_index": 9
      },
      "geometry": {
        "type": "LineString",
        "coordinates": [
          [
            2.018373,
            41.553868
          ],
          [
            2.018384,
            41.553908
          ],
          [
            2.018388,
            41.553998
          ]
        ]
      }
    },
    {
      "type": "Feature",
      "properties": {
        "street_name": "Carrer de Vallparad\u00eds",
        "calculated_eq": 65.5,
        "segment_index": 10
      },
      "geometry": {
        "type": "LineString",
        "coordinates": [
          [
            2.018388,
            41.553998
          ],
          [
            2.018386,
            41.554076
          ],
          [
            2.018375,
            41.554155
          ]
        ]
      }
    },
    {
      "type": "Feature",
      "properties": {
        "street_name": "Carrer de Vallparad\u00eds",
        "calculated_eq": 76.1,
        "segment_index": 11
      },
      "geometry": {
        "type": "LineString",
        "coordinates": [
          [
            2.018375,
            41.554155
          ],
          [
            2.018354,
            41.554226
          ],
          [
            2.018292,
            41.554428
          ]
        ]
      }
    },
    {
      "type": "Feature",
      "properties": {
        "street_name": "Carrer de Vallparad\u00eds",
        "calculated_eq": 74.7,
        "segment_index": 12
      },
      "geometry": {
        "type": "LineString",
        "coordinates": [
          [
            2.018292,
            41.554428
          ],
          [
            2.018282,
            41.55446
          ]
        ]
      }
    },
    {
      "type": "Feature",
      "properties": {
        "street_name": "Carrer de Montserrat",
        "calculated_eq": 64.9,
        "segment_index": 0
      },
      "geometry": {
        "type": "LineString",
        "coordinates": [
          [
            2.010915,
            41.567999
          ],
          [
            2.010922,
            41.568001
          ],
          [
            2.012558,
            41.568408
          ]
        ]
      }
    },
    {
      "type": "Feature",
      "properties": {
        "street_name": "Carrer de Montserrat",
        "calculated_eq": 54.8,
        "segment_index": 1
      },
      "geometry": {
        "type": "LineString",
        "coordinates": [
          [
            2.010365,
            41.56777
          ],
          [
            2.010443,
            41.567885
          ],
          [
            2.010861,
            41.567989
          ]
        ]
      }
    },
    {
      "type": "Feature",
      "properties": {
        "street_name": "Carrer de Montserrat",
        "calculated_eq": 53.1,
        "segment_index": 2
      },
      "geometry": {
        "type": "LineString",
        "coordinates": [
          [
            2.010313,
            41.567987
          ],
          [
            2.01043,
            41.567922
          ],
          [
            2.010863,
            41.56802
          ]
        ]
      }
    },
    {
      "type": "Feature",
      "properties": {
        "street_name": "Carrer de Montserrat",
        "calculated_eq": 63.6,
        "segment_index": 3
      },
      "geometry": {
        "type": "LineString",
        "coordinates": [
          [
            2.009345,
            41.567601
          ],
          [
            2.01017,
            41.567812
          ],
          [
            2.010298,
            41.567758
          ]
        ]
      }
    },
    {
      "type": "Feature",
      "properties": {
        "street_name": "Rambla d'Egara",
        "calculated_eq": 74.2,
        "segment_index": 0
      },
      "geometry": {
        "type": "LineString",
        "coordinates": [
          [
            2.007923,
            41.562454
          ],
          [
            2.00799,
            41.562969
          ],
          [
            2.00804,
            41.563692
          ]
        ]
      }
    },
    {
      "type": "Feature",
      "properties": {
        "street_name": "Rambla d'Egara",
        "calculated_eq": 64.6,
        "segment_index": 1
      },
      "geometry": {
        "type": "LineString",
        "coordinates": [
          [
            2.00804,
            41.563692
          ],
          [
            2.008041,
            41.563706
          ]
        ]
      }
    },
    {
      "type": "Feature",
      "properties": {
        "street_name": "Rambla d'Egara",
        "calculated_eq": 70.1,
        "segment_index": 2
      },
      "geometry": {
        "type": "LineString",
        "coordinates": [
          [
            2.007955,
            41.564263
          ],
          [
            2.008045,
            41.564061
          ],
          [
            2.008067,
            41.563833
          ]
        ]
      }
    },
    {
      "type": "Feature",
      "properties": {
        "street_name": "Rambla d'Egara",
        "calculated_eq": 78.3,
        "segment_index": 3
      },
      "geometry": {
        "type": "LineString",
        "coordinates": [
          [
            2.008067,
            41.563833
          ],
          [
            2.008068,
            41.563817
          ]
        ]
      }
    },
    {
      "type": "Feature",
      "properties": {
        "street_name": "Rambla d'Egara",
        "calculated_eq": 70.7,
        "segment_index": 4
      },
      "geometry": {
        "type": "LineString",
        "coordinates": [
          [
            2.007995,
            41.56373
          ],
          [
            2.008006,
            41.563895
          ],
          [
            2.008002,
            41.563989
          ]
        ]
      }
    },
    {
      "type": "Feature",
      "properties": {
        "street_name": "Rambla d'Egara",
        "calculated_eq": 64.5,
        "segment_index": 5
      },
      "geometry": {
        "type": "LineString",
        "coordinates": [
          [
            2.008002,
            41.563989
          ],
          [
            2.007991,
            41.564079
          ],
          [
            2.007963,
            41.564174
          ]
        ]
      }
    },
    {
      "type": "Feature",
      "properties": {
        "street_name": "Rambla d'Egara",
        "calculated_eq": 73.7,
        "segment_index": 6
      },
      "geometry": {
        "type": "LineString",
        "coordinates": [
          [
            2.007963,
            41.564174
          ],
          [
            2.007921,
            41.56427
          ],
          [
            2.007392,
            41.565042
          ]
        ]
      }
    },
    {
      "type": "Feature",
      "properties": {
        "street_name": "Rambla d'Egara",
        "calculated_eq": 77.5,
        "segment_index": 7
      },
      "geometry": {
        "type": "LineString",
        "coordinates": [
          [
            2.007392,
            41.565042
          ],
          [
            2.006839,
            41.565802
          ],
          [
            2.00675,
            41.565911
          ]
        ]
      }
    },
    {
      "type": "Feature",
      "properties": {
        "street_name": "Rambla d'Egara",
        "calculated_eq": 67.3,
        "segment_index": 8
      },
      "geometry": {
        "type": "LineString",
        "coordinates": [
          [
            2.00675,
            41.565911
          ],
          [
            2.006682,
            41.566007
          ]
        ]
      }
    }
  ]
}